NORAD_CAT_ID,OBJECT_NAME,OBJECT_TYPE,EPOCH,MEAN_MOTION,ECCENTRICITY,INCLINATION,RA_OF_ASC_NODE,ARG_OF_PERICENTER,MEAN_ANOMALY,BSTAR,MEAN_MOTION_DOT,MEAN_MOTION_DDOT,TLE_LINE0,TLE_LINE1,TLE_LINE2,SEMIMAJOR_AXIS,PERIOD,APOGEE,PERIGEE,DECAYED
49730.0,STARLINK-3249,PAYLOAD,2024-05-07 04:30:07,15.08849072,0.0001029,53.2182,293.8025,84.8709,275.2401,0.00027226,4.049e-05,0.0,0 STARLINK-3249,1 49730U 21115G   24128.18758209  .00004049  00000-0  27226-3 0  9999,2 49730  53.2182 293.8025 0001029  84.8709 275.2401 15.08849072135120,6917.853,95.437,540.43,539.006,0.0
49730.0,STARLINK-3249,PAYLOAD,2024-05-07 10:51:39,15.08842015,7.96e-05,53.2157,292.6147,91.5842,268.5242,0.00014505,2.022e-05,0.0,0 STARLINK-3249,1 49730U 21115G   24128.45254380  .00002022  00000-0  14505-3 0  9995,2 49730  53.2157 292.6147 0000796  91.5842 268.5242 15.08842015134056,6917.874,95.437,540.29,539.189,0.0
49730.0,STARLINK-3249,PAYLOAD,2024-05-07 17:13:12,15.08841015,0.0001029,53.2177,291.424,91.2801,268.8309,5.1006e-05,5.24e-06,0.0,0 STARLINK-3249,1 49730U 21115G   24128.71750621  .00000524  00000-0  51006-4 0  9996,2 49730  53.2177 291.4240 0001029  91.2801 268.8309 15.08841015135205,6917.877,95.437,540.454,539.03,0.0
49730.0,STARLINK-3249,PAYLOAD,2024-05-08 13:53:13,15.08842814,9.74e-05,53.2168,287.5587,95.7185,264.3918,0.00012821,1.753e-05,0.0,0 STARLINK-3249,1 49730U 21115G   24129.57862500  .00001753  00000-0  12821-3 0  9997,2 49730  53.2168 287.5587 0000974  95.7185 264.3918 15.08842814134223,6917.872,95.437,540.411,539.063,0.0
49730.0,STARLINK-3249,PAYLOAD,2024-05-08 17:03:59,15.08849051,9.46e-05,53.2179,286.9648,88.6582,271.4518,0.00022607,3.313e-05,0.0,0 STARLINK-3249,1 49730U 21115G   24129.71110276  .00003313  00000-0  22607-3 0  9996,2 49730  53.2179 286.9648 0000946  88.6582 271.4518 15.08849051134244,6917.853,95.437,540.372,539.063,0.0
49730.0,STARLINK-3249,PAYLOAD,2024-05-09 10:33:14,15.08841103,9.85e-05,53.2169,283.6925,90.2883,269.8222,0.00021866,3.194e-05,0.0,0 STARLINK-3249,1 49730U 21115G   24130.43974809  .00003194  00000-0  21866-3 0  9990,2 49730  53.2169 283.6925 0000985  90.2883 269.8222 15.08841103135469,6917.877,95.437,540.423,539.061,0.0
49730.0,STARLINK-3249,PAYLOAD,2024-05-09 13:44:00,15.08840914,0.0001008,53.2155,283.0972,91.3501,268.7607,0.00019716,2.851e-05,0.0,0 STARLINK-3249,1 49730U 21115G   24130.57222837  .00002851  00000-0  19716-3 0  9992,2 49730  53.2155 283.0972 0001008  91.3501 268.7607 15.08840914134379,6917.878,95.437,540.44,539.045,0.0
49730.0,STARLINK-3249,PAYLOAD,2024-05-09 16:54:46,15.08843099,0.0001026,53.2173,282.5029,101.2689,258.8418,0.00020187,2.927e-05,0.0,0 STARLINK-3249,1 49730U 21115G   24130.70470691  .00002927  00000-0  20187-3 0  9998,2 49730  53.2173 282.5029 0001026 101.2689 258.8418 15.08843099134393,6917.871,95.437,540.446,539.026,0.0
49730.0,STARLINK-3249,PAYLOAD,2024-05-10 13:34:47,15.08844172,9.74e-05,53.2171,278.6377,100.2317,259.8785,0.00018085,2.592e-05,0.0,0 STARLINK-3249,1 49730U 21115G   24131.56582706  .00002592  00000-0  18085-3 0  9996,2 49730  53.2171 278.6377 0000974 100.2317 259.8785 15.08844172135630,6917.868,95.437,540.406,539.059,0.0
49730.0,STARLINK-3249,PAYLOAD,2024-05-10 19:56:19,15.08859909,9.31e-05,53.2179,277.4497,92.698,267.4118,0.00048029,7.368e-05,0.0,0 STARLINK-3249,1 49730U 21115G   24131.83078086  .00007368  00000-0  48029-3 0  9994,2 49730  53.2179 277.4497 0000931  92.6980 267.4118 15.08859909135674,6917.82,95.436,540.329,539.04,0.0
49730.0,STARLINK-3249,PAYLOAD,2024-05-11 13:25:31,15.08930929,0.0001255,53.2177,274.179,74.588,285.5251,0.0026097,0.00041594,0.0,0 STARLINK-3249,1 49730U 21115G   24132.55939618  .00041594  00000-0  26097-2 0  9990,2 49730  53.2177 274.1790 0001255  74.5880 285.5251 15.08930929135783,6917.602,95.432,540.336,538.599,0.0
49730.0,STARLINK-3249,PAYLOAD,2024-05-11 19:47:05,15.08822424,0.0001846,53.2188,272.9915,109.0739,251.0453,-0.0017461,-0.00027957,0.0,0 STARLINK-3249,1 49730U 21115G   24132.82437292 -.00027957  00000-0 -17461-2 0  9995,2 49730  53.2188 272.9915 0001846 109.0739 251.0453 15.08822424135820,6917.934,95.439,541.076,538.522,0.0
49730.0,STARLINK-3249,PAYLOAD,2024-05-12 02:08:41,15.0872087,0.0002284,53.2168,271.8002,96.0887,264.0366,-0.0041974,-0.00066263,0.0,0 STARLINK-3249,1 49730U 21115G   24133.08936725 -.00066263  00000-0 -41974-2 0  9998,2 49730  53.2168 271.8002 0002284  96.0887 264.0366 15.08720870135862,6918.245,95.445,541.69,538.529,0.0
49730.0,STARLINK-3249,PAYLOAD,2024-05-12 13:16:24,15.08755077,0.000127,53.2179,269.718,91.6469,268.4668,-0.00036096,-6.014e-05,0.0,0 STARLINK-3249,1 49730U 21115G   24133.55306658 -.00006014  00000-0 -36096-3 0  9994,2 49730  53.2179 269.7180 0001270  91.6469 268.4668 15.08755077135936,6918.14,95.443,540.884,539.126,0.0
49730.0,STARLINK-3249,PAYLOAD,2024-05-12 14:51:48,15.08740351,0.0001827,53.2176,269.4211,101.8126,258.3071,0.0015189,0.00023902,0.0,0 STARLINK-3249,1 49730U 21115G   24133.61931506  .00023902  00000-0  15189-2 0  9999,2 49730  53.2176 269.4211 0001827 101.8126 258.3071 15.08740351134830,6918.185,95.444,541.314,538.786,0.0
49730.0,STARLINK-3249,PAYLOAD,2024-05-12 19:37:58,15.08796169,0.0001568,53.2173,268.5291,96.9906,263.1265,0.0021936,0.00034754,0.0,0 STARLINK-3249,1 49730U 21115G   24133.81803684  .00034754  00000-0  21936-2 0  9990,2 49730  53.2173 268.5291 0001568  96.9906 263.1265 15.08796169135970,6918.014,95.44,540.964,538.795,0.0
49730.0,STARLINK-3249,PAYLOAD,2024-05-13 01:59:30,15.08834723,0.0001388,53.2174,267.3411,90.6189,269.4962,0.0010081,0.0001579,0.0,0 STARLINK-3249,1 49730U 21115G   24134.08299611  .00015790  00000-0  10081-2 0  9997,2 49730  53.2174 267.3411 0001388  90.6189 269.4962 15.08834723136014,6917.897,95.438,540.722,538.801,0.0
49730.0,STARLINK-3249,PAYLOAD,2024-05-13 17:53:21,15.08881535,0.0001192,53.2159,264.3679,83.8004,276.3124,0.001505,0.00023772,0.0,0 STARLINK-3249,1 49730U 21115G   24134.74538300  .00023772  00000-0  15050-2 0  9991,2 49730  53.2159 264.3679 0001192  83.8004 276.3124 15.08881535136114,6917.753,95.435,540.443,538.794,0.0
49730.0,STARLINK-3249,PAYLOAD,2024-05-14 08:11:48,15.08889406,0.0003501,53.2118,261.6883,82.8738,277.2652,0.00076528,0.00011929,0.0,0 STARLINK-3249,1 49730U 21115G   24135.34153484  .00011929  00000-0  76528-3 0  9993,2 49730  53.2118 261.6883 0003501  82.8738 277.2652 15.08889406136206,6917.729,95.434,542.016,537.172,0.0
49730.0,STARLINK-3249,PAYLOAD,2024-05-14 14:33:20,15.08890512,0.0003153,53.2145,260.5016,82.39,277.745,0.00064956,0.00010079,0.0,0 STARLINK-3249,1 49730U 21115G   24135.60648615  .00010079  00000-0  64956-3 0  9994,2 49730  53.2145 260.5016 0003153  82.3900 277.7450 15.08890512135133,6917.726,95.434,541.772,537.41,0.0
49730.0,STARLINK-3249,PAYLOAD,2024-05-15 01:41:01,15.08885944,8.59e-05,53.2164,258.4144,131.538,228.5686,0.00094483,0.000148,0.0,0 STARLINK-3249,1 49730U 21115G   24136.07015379  .00014800  00000-0  94483-3 0  9995,2 49730  53.2164 258.4144 0000859 131.5380 228.5686 15.08885944136310,6917.74,95.435,540.199,539.011,0.0
49730.0,STARLINK-3249,PAYLOAD,2024-05-15 12:48:43,15.08871126,0.0002159,53.2159,256.3329,106.5033,253.6197,0.00053216,8.199e-05,0.0,0 STARLINK-3249,1 49730U 21115G   24136.53383142  .00008199  00000-0  53216-3 0  9995,2 49730  53.2159 256.3329 0002159 106.5033 253.6197 15.08871126136388,6917.785,95.436,541.144,538.157,0.0
49730.0,STARLINK-3249,PAYLOAD,2024-05-15 14:24:05,15.08884755,0.0001328,53.2156,256.0352,114.9224,245.1907,0.00071654,0.00011148,0.0,0 STARLINK-3249,1 49730U 21115G   24136.60006624  .00011148  00000-0  71654-3 0  9994,2 49730  53.2156 256.0352 0001328 114.9224 245.1907 15.08884755135285,6917.744,95.435,540.527,538.69,0.0
49730.0,STARLINK-3249,PAYLOAD,2024-05-15 17:34:51,15.08885229,0.00014,53.2168,255.4419,106.0981,254.0166,0.00070387,0.00010946,0.0,0 STARLINK-3249,1 49730U 21115G   24136.73254393  .00010946  00000-0  70387-3 0  9993,2 49730  53.2168 255.4419 0001400 106.0981 254.0166 15.08885229135304,6917.742,95.435,540.576,538.639,0.0
49730.0,STARLINK-3249,PAYLOAD,2024-05-16 01:31:48,15.08848462,0.0002148,53.216,253.9524,100.0193,260.1042,-0.00018134,-3.174e-05,0.0,0 STARLINK-3249,1 49730U 21115G   24137.06375228 -.00003174  00000-0 -18134-3 0  9990,2 49730  53.2160 253.9524 0002148 100.0193 260.1042 15.08848462136462,6917.855,95.437,541.205,538.234,0.0
49730.0,STARLINK-3249,PAYLOAD,2024-05-16 11:04:06,15.08843652,0.0001721,53.2171,252.1674,103.948,256.1704,0.0001442,2.008e-05,0.0,0 STARLINK-3249,1 49730U 21115G   24137.46119073  .00002008  00000-0  14420-3 0  9995,2 49730  53.2171 252.1674 0001721 103.9480 256.1704 15.08843652135418,6917.869,95.437,540.925,538.544,0.0
49730.0,STARLINK-3249,PAYLOAD,2024-05-17 14:05:41,15.08820856,0.0001336,53.2172,247.1153,78.6698,281.4444,0.00013817,1.911e-05,0.0,0 STARLINK-3249,1 49730U 21115G   24138.58729010  .00001911  00000-0  13817-3 0  9998,2 49730  53.2172 247.1153 0001336  78.6698 281.4444 15.08820856136690,6917.939,95.439,540.728,538.88,0.0
49730.0,STARLINK-3249,PAYLOAD,2024-05-17 23:38:00,15.08833677,0.0001378,53.2179,245.3329,84.3269,275.788,0.00033812,5.096e-05,0.0,0 STARLINK-3249,1 49730U 21115G   24138.98472990  .00005096  00000-0  33812-3 0  9999,2 49730  53.2179 245.3329 0001378  84.3269 275.7880 15.08833677136758,6917.9,95.438,540.718,538.811,0.0
49730.0,STARLINK-3249,PAYLOAD,2024-05-18 13:56:26,15.0887979,0.0001329,53.2171,242.6585,75.1695,284.9445,0.00083101,0.00012977,0.0,0 STARLINK-3249,1 49730U 21115G   24139.58086173  .00012977  00000-0  83101-3 0  9992,2 49730  53.2171 242.6585 0001329  75.1695 284.9445 15.08879790136846,6917.759,95.435,540.543,538.704,0.0
49730.0,STARLINK-3249,PAYLOAD,2024-05-19 12:11:51,15.08812998,0.0001471,53.2174,238.4932,57.0229,303.0904,-0.00074051,-0.00012045,0.0,0 STARLINK-3249,1 49730U 21115G   24140.50823958 -.00012045  00000-0 -74051-3 0  9998,2 49730  53.2174 238.4932 0001471  57.0229 303.0904 15.08812998135870,6917.963,95.439,540.846,538.81,0.0
